[{"OBJECT_NAME":"STARLINK-4356","OBJECT_ID":"2022-084AM","EPOCH":"2026-03-09T17:38:05.654688","MEAN_MOTION":15.01251188,"ECCENTRICITY":0.00029592,"INCLINATION":97.6038,"RA_OF_ASC_NODE":130.2446,"ARG_OF_PERICENTER":155.5459,"MEAN_ANOMALY":204.5906,"EPHEMERIS_TYPE":0,"CLASSIFICATION_TYPE":"U","NORAD_CAT_ID":53224,"ELEMENT_SET_NO":999,"REV_AT_EPOCH":19932,"BSTAR":0.00012556272,"MEAN_MOTION_DOT":1.554e-5,"MEAN_MOTION_DDOT":0},{"OBJECT_NAME":"COSMOS 252 DEB","OBJECT_ID":"1968-097DV","EPOCH":"2026-03-09T06:51:51.124896","MEAN_MOTION":13.73038958,"ECCENTRICITY":0.05679066,"INCLINATION":62.4087,"RA_OF_ASC_NODE":319.2034,"ARG_OF_PERICENTER":227.0183,"MEAN_ANOMALY":128.1904,"EPHEMERIS_TYPE":0,"CLASSIFICATION_TYPE":"U","NORAD_CAT_ID":9973,"ELEMENT_SET_NO":999,"REV_AT_EPOCH":1707,"BSTAR":0.00062015301,"MEAN_MOTION_DOT":1.742e-5,"MEAN_MOTION_DDOT":0}]
